[
    {
        "id": 1,
        "name": "John",
        "pincode": "12345",
        "image": "/Images/Coffee/coffee1.jpeg"
    },
    {
        "id": 2,
        "name": "Jane",
        "pincode": "67890",
        "image": "/Images/Coffee/coffee1.jpeg"
    },
    {
        "id": 3,
        "name": "Alice",
        "pincode": "11111",
        "image": "/Images/Coffee/coffee1.jpeg"    },
    {
        "id": 4,
        "name": "Bob",
        "pincode": "22222",
        "image": "/Images/Coffee/coffee1.jpeg"    },
    {
        "id": 5,
        "name": "Charlie",
        "pincode": "33333",
        "image": "/Images/Coffee/coffee1.jpeg"    },
    {
        "id": 6,
        "name": "David",
        "pincode": "44444",
        "image": "/Images/Coffee/coffee1.jpeg"    },
    {
        "id": 7,
        "name": "Eve",
        "pincode": "55555",
        "image": "/Images/Coffee/coffee1.jpeg"    },
    {
        "id": 8,
        "name": "Frank",
        "pincode": "66666",
        "image": "/Images/Coffee/coffee1.jpeg"    },
    {
        "id": 9,
        "name": "Grace",
        "pincode": "77777",
        "image": "/Images/Coffee/coffee1.jpeg"    },
    {
        "id": 10,
        "name": "Harry",
        "pincode": "88888",
        "image": "/Images/Coffee/coffee1.jpeg"    }
]